[Satellite]
VERSION=1.1
NAME=HOT BIRD 8
NICKNAME=HOT BIRD 8
TLE1=1 29270U 06032A   17186.26143685  .00000082  00000-0  00000-0 0  9999
TLE2=2 29270   0.0667  29.5336 0003671  44.9690 316.0603  1.00270125 14549
